[{"OBJECT_NAME":"ONEWEB-0653","OBJECT_ID":"2023-029V","EPOCH":"2025-10-09T04:38:19.421376","MEAN_MOTION":13.14502497,"ECCENTRICITY":0.0001746,"INCLINATION":87.9051,"RA_OF_ASC_NODE":339.7082,"ARG_OF_PERICENTER":93.0503,"MEAN_ANOMALY":267.0827,"EPHEMERIS_TYPE":0,"CLASSIFICATION_TYPE":"U","NORAD_CAT_ID":55815,"ELEMENT_SET_NO":999,"REV_AT_EPOCH":12642,"BSTAR":-0.0004031919,"MEAN_MOTION_DOT":-1.37e-6,"MEAN_MOTION_DDOT":0},{"OBJECT_NAME":"ONEWEB-0654","OBJECT_ID":"2023-029W","EPOCH":"2025-10-09T04:31:28.157376","MEAN_MOTION":13.14501995,"ECCENTRICITY":0.00019224,"INCLINATION":87.9052,"RA_OF_ASC_NODE":339.7075,"ARG_OF_PERICENTER":87.7558,"MEAN_ANOMALY":272.3792,"EPHEMERIS_TYPE":0,"CLASSIFICATION_TYPE":"U","NORAD_CAT_ID":55816,"ELEMENT_SET_NO":999,"REV_AT_EPOCH":12644,"BSTAR":-0.00071647104,"MEAN_MOTION_DOT":-2.53e-6,"MEAN_MOTION_DDOT":0},{"OBJECT_NAME":"ONEWEB-0656","OBJECT_ID":"2023-029X","EPOCH":"2025-10-09T03:30:22.460256","MEAN_MOTION":13.20771836,"ECCENTRICITY":0.00020024,"INCLINATION":87.9235,"RA_OF_ASC_NODE":324.4876,"ARG_OF_PERICENTER":83.1375,"MEAN_ANOMALY":276.9987,"EPHEMERIS_TYPE":0,"CLASSIFICATION_TYPE":"U","NORAD_CAT_ID":55817,"ELEMENT_SET_NO":999,"REV_AT_EPOCH":12801,"BSTAR":0.00028567871,"MEAN_MOTION_DOT":1.29e-6,"MEAN_MOTION_DDOT":0},{"OBJECT_NAME":"ONEWEB-0657","OBJECT_ID":"2023-029Y","EPOCH":"2025-10-09T06:30:17.302176","MEAN_MOTION":13.19726471,"ECCENTRICITY":0.00026272,"INCLINATION":87.9265,"RA_OF_ASC_NODE":354.9017,"ARG_OF_PERICENTER":93.5882,"MEAN_ANOMALY":266.5551,"EPHEMERIS_TYPE":0,"CLASSIFICATION_TYPE":"U","NORAD_CAT_ID":55818,"ELEMENT_SET_NO":999,"REV_AT_EPOCH":12581,"BSTAR":1.5255349e-5,"MEAN_MOTION_DOT":1.9e-7,"MEAN_MOTION_DDOT":0},{"OBJECT_NAME":"ONEWEB-0658","OBJECT_ID":"2023-029Z","EPOCH":"2025-10-09T06:23:26.835648","MEAN_MOTION":13.19723287,"ECCENTRICITY":0.00019976,"INCLINATION":87.9287,"RA_OF_ASC_NODE":354.8445,"ARG_OF_PERICENTER":113.9717,"MEAN_ANOMALY":246.1625,"EPHEMERIS_TYPE":0,"CLASSIFICATION_TYPE":"U","NORAD_CAT_ID":55819,"ELEMENT_SET_NO":999,"REV_AT_EPOCH":12582,"BSTAR":-1.0266577e-5,"MEAN_MOTION_DOT":9.0e-8,"MEAN_MOTION_DDOT":0},{"OBJECT_NAME":"ONEWEB-0660","OBJECT_ID":"2023-029AA","EPOCH":"2025-10-09T03:59:30.220800","MEAN_MOTION":13.14502811,"ECCENTRICITY":0.00015687,"INCLINATION":87.9068,"RA_OF_ASC_NODE":339.6862,"ARG_OF_PERICENTER":104.1519,"MEAN_ANOMALY":255.9785,"EPHEMERIS_TYPE":0,"CLASSIFICATION_TYPE":"U","NORAD_CAT_ID":55820,"ELEMENT_SET_NO":999,"REV_AT_EPOCH":12642,"BSTAR":0.0004489444,"MEAN_MOTION_DOT":1.79e-6,"MEAN_MOTION_DDOT":0},{"OBJECT_NAME":"ONEWEB-0661","OBJECT_ID":"2023-029AB","EPOCH":"2025-10-09T04:49:44.313312","MEAN_MOTION":13.14504288,"ECCENTRICITY":0.00015055,"INCLINATION":87.9051,"RA_OF_ASC_NODE":339.7499,"ARG_OF_PERICENTER":100.2023,"MEAN_ANOMALY":259.9276,"EPHEMERIS_TYPE":0,"CLASSIFICATION_TYPE":"U","NORAD_CAT_ID":55821,"ELEMENT_SET_NO":999,"REV_AT_EPOCH":12641,"BSTAR":-0.00028170498,"MEAN_MOTION_DOT":-9.2e-7,"MEAN_MOTION_DDOT":0},{"OBJECT_NAME":"ONEWEB-0662","OBJECT_ID":"2023-029AC","EPOCH":"2025-10-09T05:39:58.399776","MEAN_MOTION":13.14502968,"ECCENTRICITY":0.00015787,"INCLINATION":87.9056,"RA_OF_ASC_NODE":339.748,"ARG_OF_PERICENTER":106.6366,"MEAN_ANOMALY":253.4937,"EPHEMERIS_TYPE":0,"CLASSIFICATION_TYPE":"U","NORAD_CAT_ID":55822,"ELEMENT_SET_NO":999,"REV_AT_EPOCH":12646,"BSTAR":0.00038663697,"MEAN_MOTION_DOT":1.56e-6,"MEAN_MOTION_DDOT":0},{"OBJECT_NAME":"ONEWEB-0663","OBJECT_ID":"2023-029AD","EPOCH":"2025-10-09T02:54:13.556736","MEAN_MOTION":13.20848626,"ECCENTRICITY":0.00016443,"INCLINATION":87.925,"RA_OF_ASC_NODE":324.5532,"ARG_OF_PERICENTER":109.3186,"MEAN_ANOMALY":250.8125,"EPHEMERIS_TYPE":0,"CLASSIFICATION_TYPE":"U","NORAD_CAT_ID":55823,"ELEMENT_SET_NO":999,"REV_AT_EPOCH":12800,"BSTAR":2.6775565e-5,"MEAN_MOTION_DOT":2.4e-7,"MEAN_MOTION_DDOT":0},{"OBJECT_NAME":"ONEWEB-0664","OBJECT_ID":"2023-029AE","EPOCH":"2025-10-09T03:12:10.287360","MEAN_MOTION":13.20772857,"ECCENTRICITY":0.00016012,"INCLINATION":87.9228,"RA_OF_ASC_NODE":324.5668,"ARG_OF_PERICENTER":89.0104,"MEAN_ANOMALY":271.1213,"EPHEMERIS_TYPE":0,"CLASSIFICATION_TYPE":"U","NORAD_CAT_ID":55824,"ELEMENT_SET_NO":999,"REV_AT_EPOCH":12800,"BSTAR":0.00012915838,"MEAN_MOTION_DOT":6.5e-7,"MEAN_MOTION_DDOT":0},{"OBJECT_NAME":"ONEWEB-0665","OBJECT_ID":"2023-029AF","EPOCH":"2025-10-09T04:45:10.188576","MEAN_MOTION":13.14504634,"ECCENTRICITY":0.00016726,"INCLINATION":87.9056,"RA_OF_ASC_NODE":339.7265,"ARG_OF_PERICENTER":106.6341,"MEAN_ANOMALY":253.4973,"EPHEMERIS_TYPE":0,"CLASSIFICATION_TYPE":"U","NORAD_CAT_ID":55825,"ELEMENT_SET_NO":999,"REV_AT_EPOCH":12643,"BSTAR":-0.00025958751,"MEAN_MOTION_DOT":-8.3e-7,"MEAN_MOTION_DDOT":0},{"OBJECT_NAME":"ONEWEB-0666","OBJECT_ID":"2023-029AG","EPOCH":"2025-10-09T03:03:04.135680","MEAN_MOTION":13.20773993,"ECCENTRICITY":0.00026281,"INCLINATION":87.9231,"RA_OF_ASC_NODE":324.556,"ARG_OF_PERICENTER":88.8641,"MEAN_ANOMALY":271.2794,"EPHEMERIS_TYPE":0,"CLASSIFICATION_TYPE":"U","NORAD_CAT_ID":55826,"ELEMENT_SET_NO":999,"REV_AT_EPOCH":12801,"BSTAR":-4.9298861e-5,"MEAN_MOTION_DOT":-7.0e-8,"MEAN_MOTION_DDOT":0},{"OBJECT_NAME":"ONEWEB-0667","OBJECT_ID":"2023-029AH","EPOCH":"2025-10-09T04:43:02.566272","MEAN_MOTION":13.20789266,"ECCENTRICITY":0.0001458,"INCLINATION":87.9266,"RA_OF_ASC_NODE":324.4754,"ARG_OF_PERICENTER":88.988,"MEAN_ANOMALY":271.142,"EPHEMERIS_TYPE":0,"CLASSIFICATION_TYPE":"U","NORAD_CAT_ID":55827,"ELEMENT_SET_NO":999,"REV_AT_EPOCH":12801,"BSTAR":0.0043625568,"MEAN_MOTION_DOT":1.788e-5,"MEAN_MOTION_DDOT":0},{"OBJECT_NAME":"ONEWEB-0669","OBJECT_ID":"2023-029AJ","EPOCH":"2025-10-09T04:36:17.222400","MEAN_MOTION":13.20771499,"ECCENTRICITY":0.00019299,"INCLINATION":87.9229,"RA_OF_ASC_NODE":324.5113,"ARG_OF_PERICENTER":75.2076,"MEAN_ANOMALY":284.9271,"EPHEMERIS_TYPE":0,"CLASSIFICATION_TYPE":"U","NORAD_CAT_ID":55828,"ELEMENT_SET_NO":999,"REV_AT_EPOCH":12801,"BSTAR":-7.140639e-6,"MEAN_MOTION_DOT":1.0e-7,"MEAN_MOTION_DDOT":0},{"OBJECT_NAME":"ONEWEB-0670","OBJECT_ID":"2023-029AK","EPOCH":"2025-10-09T04:13:11.931456","MEAN_MOTION":13.14502386,"ECCENTRICITY":0.00014778,"INCLINATION":87.906,"RA_OF_ASC_NODE":339.7507,"ARG_OF_PERICENTER":96.0294,"MEAN_ANOMALY":264.1004,"EPHEMERIS_TYPE":0,"CLASSIFICATION_TYPE":"U","NORAD_CAT_ID":55829,"ELEMENT_SET_NO":999,"REV_AT_EPOCH":12645,"BSTAR":4.2029278e-5,"MEAN_MOTION_DOT":2.8e-7,"MEAN_MOTION_DDOT":0},{"OBJECT_NAME":"ONEWEB-0671","OBJECT_ID":"2023-029AL","EPOCH":"2025-10-09T06:16:36.908256","MEAN_MOTION":13.19726341,"ECCENTRICITY":0.00016882,"INCLINATION":87.9269,"RA_OF_ASC_NODE":354.8967,"ARG_OF_PERICENTER":101.3909,"MEAN_ANOMALY":258.7413,"EPHEMERIS_TYPE":0,"CLASSIFICATION_TYPE":"U","NORAD_CAT_ID":55830,"ELEMENT_SET_NO":999,"REV_AT_EPOCH":12580,"BSTAR":3.1039476e-5,"MEAN_MOTION_DOT":2.5e-7,"MEAN_MOTION_DDOT":0}]
