ONEWEB-0653             
1 55815U 23029V   25282.19328034 -.00000137  00000+0 -40319-3 0  9991
2 55815  87.9051 339.7082 0001746  93.0503 267.0827 13.14502497126429
ONEWEB-0654             
1 55816U 23029W   25282.18852034 -.00000253  00000+0 -71647-3 0  9990
2 55816  87.9052 339.7075 0001922  87.7558 272.3792 13.14501995126443
ONEWEB-0656             
1 55817U 23029X   25282.14609329  .00000129  00000+0  28568-3 0  9998
2 55817  87.9235 324.4876 0002002  83.1375 276.9987 13.20771836128015
ONEWEB-0657             
1 55818U 23029Y   25282.27103359  .00000019  00000+0  15255-4 0  9993
2 55818  87.9265 354.9017 0002627  93.5882 266.5551 13.19726471125815
ONEWEB-0658             
1 55819U 23029Z   25282.26628282  .00000009  00000+0 -10267-4 0  9998
2 55819  87.9287 354.8445 0001997 113.9717 246.1625 13.19723287125826
ONEWEB-0660             
1 55820U 23029AA  25282.16632200  .00000179  00000+0  44894-3 0  9993
2 55820  87.9068 339.6862 0001568 104.1519 255.9785 13.14502811126420
ONEWEB-0661             
1 55821U 23029AB  25282.20120733 -.00000092  00000+0 -28170-3 0  9997
2 55821  87.9051 339.7499 0001505 100.2023 259.9276 13.14504288126416
ONEWEB-0662             
1 55822U 23029AC  25282.23609259  .00000156  00000+0  38664-3 0  9994
2 55822  87.9056 339.7480 0001578 106.6366 253.4937 13.14502968126463
ONEWEB-0663             
1 55823U 23029AD  25282.12099024  .00000024  00000+0  26776-4 0  9992
2 55823  87.9250 324.5532 0001644 109.3186 250.8125 13.20848626128007
ONEWEB-0664             
1 55824U 23029AE  25282.13345240  .00000065  00000+0  12916-3 0  9993
2 55824  87.9228 324.5668 0001601  89.0104 271.1213 13.20772857128006
ONEWEB-0665             
1 55825U 23029AF  25282.19803459 -.00000083  00000+0 -25959-3 0  9994
2 55825  87.9056 339.7265 0001672 106.6341 253.4973 13.14504634126434
ONEWEB-0666             
1 55826U 23029AG  25282.12713120 -.00000007  00000+0 -49299-4 0  9993
2 55826  87.9231 324.5560 0002628  88.8641 271.2794 13.20773993128014
ONEWEB-0667             
1 55827U 23029AH  25282.19655748  .00001788  00000+0  43626-2 0  9993
2 55827  87.9266 324.4754 0001458  88.9880 271.1420 13.20789266128018
ONEWEB-0669             
1 55828U 23029AJ  25282.19186600  .00000010  00000+0 -71406-5 0  9998
2 55828  87.9229 324.5113 0001929  75.2076 284.9271 13.20771499128012
ONEWEB-0670             
1 55829U 23029AK  25282.17583254  .00000028  00000+0  42029-4 0  9999
2 55829  87.9060 339.7507 0001477  96.0294 264.1004 13.14502386126452
ONEWEB-0671             
1 55830U 23029AL  25282.26153829  .00000025  00000+0  31039-4 0  9998
2 55830  87.9269 354.8967 0001688 101.3909 258.7413 13.19726341125805
